{"type": "FeatureCollection", "features": [ {"type": "Feature", "properties": {"norad_id": 35701, "name": "COSMOS 2251 DEB", "group": "cosmos-2251-debris", "lat": -54.9176373760485, "lon": -81.02128763994689, "alt_km": 1148.2755502298642, "timestamp": "2025-12-12T07:43:20.912393+00:00", "meta": {"OBJECT_NAME": "COSMOS 2251 DEB", "OBJECT_ID": "1993-036APW", "EPOCH": "2025-12-06T05:57:57.623904", "MEAN_MOTION": 13.80843435, "ECCENTRICITY": 0.02897209, "INCLINATION": 74.0028, "RA_OF_ASC_NODE": 313.2955, "ARG_OF_PERICENTER": 164.0681, "MEAN_ANOMALY": 196.98, "EPHEMERIS_TYPE": 0, "CLASSIFICATION_TYPE": "U", "NORAD_CAT_ID": 35701, "ELEMENT_SET_NO": 999, "REV_AT_EPOCH": 62069, "BSTAR": 0.0021223911, "MEAN_MOTION_DOT": 3.05e-05, "MEAN_MOTION_DDOT": 0}, "tle": {"line1": "1 35701U 93036APW 25340.24858361  .00003050  00000+0  21224-2 0  9998", "line2": "2 35701  74.0028 313.2955 0289720 164.0681 196.9800 13.80843435620696"}}, "geometry": {"type": "Point", "coordinates": [-81.02128763994689, -54.9176373760485]}}, {"type": "Feature", "properties": {"norad_id": 35703, "name": "COSMOS 2251 DEB", "group": "cosmos-2251-debris", "lat": 25.234271589721583, "lon": -144.14544640709764, "alt_km": 560.869528006815, "timestamp": "2025-12-12T07:43:20.912403+00:00", "meta": {"OBJECT_NAME": "COSMOS 2251 DEB", "OBJECT_ID": "1993-036APY", "EPOCH": "2025-12-08T11:12:28.770624", "MEAN_MOTION": 14.90258753, "ECCENTRICITY": 0.00649106, "INCLINATION": 74.042, "RA_OF_ASC_NODE": 51.3159, "ARG_OF_PERICENTER": 122.6243, "MEAN_ANOMALY": 238.1226, "EPHEMERIS_TYPE": 0, "CLASSIFICATION_TYPE": "U", "NORAD_CAT_ID": 35703, "ELEMENT_SET_NO": 999, "REV_AT_EPOCH": 66552, "BSTAR": 0.00096315421, "MEAN_MOTION_DOT": 9.705e-05, "MEAN_MOTION_DDOT": 0}, "tle": {"line1": "1 35703U 93036APY 25342.46699966  .00009705  00000+0  96315-3 0  9997", "line2": "2 35703  74.0420  51.3159 0064910 122.6243 238.1226 14.90258753665523"}}, "geometry": {"type": "Point", "coordinates": [-144.14544640709764, 25.234271589721583]}}, {"type": "Feature", "properties": {"norad_id": 35705, "name": "COSMOS 2251 DEB", "group": "cosmos-2251-debris", "lat": -37.34372655200496, "lon": 124.20872205427723, "alt_km": 675.2678329361852, "timestamp": "2025-12-12T07:43:20.912414+00:00", "meta": {"OBJECT_NAME": "COSMOS 2251 DEB", "OBJECT_ID": "1993-036AQA", "EPOCH": "2025-12-03T05:18:59.084352", "MEAN_MOTION": 14.71707631, "ECCENTRICITY": 0.0034156, "INCLINATION": 74.2742, "RA_OF_ASC_NODE": 154.0557, "ARG_OF_PERICENTER": 110.0272, "MEAN_ANOMALY": 250.4584, "EPHEMERIS_TYPE": 0, "CLASSIFICATION_TYPE": "U", "NORAD_CAT_ID": 35705, "ELEMENT_SET_NO": 999, "REV_AT_EPOCH": 85786, "BSTAR": 0.0035867, "MEAN_MOTION_DOT": 0.00022615, "MEAN_MOTION_DDOT": 0}, "tle": {"line1": "1 35705U 93036AQA 25337.22151718  .00022615  00000+0  35867-2 0  9994", "line2": "2 35705  74.2742 154.0557 0034156 110.0272 250.4584 14.71707631857866"}}, "geometry": {"type": "Point", "coordinates": [124.20872205427723, -37.34372655200496]}}, {"type": "Feature", "properties": {"norad_id": 35706, "name": "COSMOS 2251 DEB", "group": "cosmos-2251-debris", "lat": 18.13042629760291, "lon": 68.92927695527378, "alt_km": 1024.8944899549087, "timestamp": "2025-12-12T07:43:20.912424+00:00", "meta": {"OBJECT_NAME": "COSMOS 2251 DEB", "OBJECT_ID": "1993-036AQB", "EPOCH": "2025-12-11T12:17:37.968864", "MEAN_MOTION": 13.65920781, "ECCENTRICITY": 0.03407993, "INCLINATION": 73.8889, "RA_OF_ASC_NODE": 64.8358, "ARG_OF_PERICENTER": 114.8803, "MEAN_ANOMALY": 248.8145, "EPHEMERIS_TYPE": 0, "CLASSIFICATION_TYPE": "U", "NORAD_CAT_ID": 35706, "ELEMENT_SET_NO": 999, "REV_AT_EPOCH": 62045, "BSTAR": 0.0015097542, "MEAN_MOTION_DOT": 1.827e-05, "MEAN_MOTION_DDOT": 0}, "tle": {"line1": "1 35706U 93036AQB 25345.51224501  .00001827  00000+0  15098-2 0  9993", "line2": "2 35706  73.8889  64.8358 0340799 114.8803 248.8145 13.65920781620458"}}, "geometry": {"type": "Point", "coordinates": [68.92927695527378, 18.13042629760291]}}, {"type": "Feature", "properties": {"norad_id": 35711, "name": "COSMOS 2251 DEB", "group": "cosmos-2251-debris", "lat": -48.0994723182595, "lon": -157.3237733588689, "alt_km": 628.5767782590074, "timestamp": "2025-12-12T07:43:20.912434+00:00", "meta": {"OBJECT_NAME": "COSMOS 2251 DEB", "OBJECT_ID": "1993-036AQG", "EPOCH": "2025-12-11T23:44:55.918176", "MEAN_MOTION": 14.63797963, "ECCENTRICITY": 0.00854751, "INCLINATION": 74.0494, "RA_OF_ASC_NODE": 221.9006, "ARG_OF_PERICENTER": 322.9872, "MEAN_ANOMALY": 36.5417, "EPHEMERIS_TYPE": 0, "CLASSIFICATION_TYPE": "U", "NORAD_CAT_ID": 35711, "ELEMENT_SET_NO": 999, "REV_AT_EPOCH": 87760, "BSTAR": 0.00037413338, "MEAN_MOTION_DOT": 2.025e-05, "MEAN_MOTION_DDOT": 0}, "tle": {"line1": "1 35711U 93036AQG 25345.98953609  .00002025  00000+0  37413-3 0  9995", "line2": "2 35711  74.0494 221.9006 0085475 322.9872  36.5417 14.63797963877608"}}, "geometry": {"type": "Point", "coordinates": [-157.3237733588689, -48.0994723182595]}}, {"type": "Feature", "properties": {"norad_id": 35716, "name": "COSMOS 2251 DEB", "group": "cosmos-2251-debris", "lat": 33.05874584282692, "lon": -154.22732870756582, "alt_km": 627.8659787439483, "timestamp": "2025-12-12T07:43:20.912444+00:00", "meta": {"OBJECT_NAME": "COSMOS 2251 DEB", "OBJECT_ID": "1993-036AQM", "EPOCH": "2025-12-10T22:58:34.278816", "MEAN_MOTION": 14.60083428, "ECCENTRICITY": 0.0088633, "INCLINATION": 73.9924, "RA_OF_ASC_NODE": 197.6138, "ARG_OF_PERICENTER": 39.0207, "MEAN_ANOMALY": 26.7611, "EPHEMERIS_TYPE": 0, "CLASSIFICATION_TYPE": "U", "NORAD_CAT_ID": 35716, "ELEMENT_SET_NO": 999, "REV_AT_EPOCH": 87601, "BSTAR": 0.00015815, "MEAN_MOTION_DOT": 7.71e-06, "MEAN_MOTION_DDOT": 0}, "tle": {"line1": "1 35716U 93036AQM 25344.95734119  .00000771  00000+0  15815-3 0  9997", "line2": "2 35716  73.9924 197.6138 0088633  39.0207  26.7611 14.60083428876013"}}, "geometry": {"type": "Point", "coordinates": [-154.22732870756582, 33.05874584282692]}}, {"type": "Feature", "properties": {"norad_id": 35717, "name": "COSMOS 2251 DEB", "group": "cosmos-2251-debris", "lat": -16.541760754039572, "lon": 43.09836530420284, "alt_km": 794.379059210497, "timestamp": "2025-12-12T07:43:20.912455+00:00", "meta": {"OBJECT_NAME": "COSMOS 2251 DEB", "OBJECT_ID": "1993-036AQN", "EPOCH": "2025-12-11T09:07:06.227616", "MEAN_MOTION": 14.38476212, "ECCENTRICITY": 0.00768139, "INCLINATION": 74.1604, "RA_OF_ASC_NODE": 219.9837, "ARG_OF_PERICENTER": 79.9617, "MEAN_ANOMALY": 281.0194, "EPHEMERIS_TYPE": 0, "CLASSIFICATION_TYPE": "U", "NORAD_CAT_ID": 35717, "ELEMENT_SET_NO": 999, "REV_AT_EPOCH": 74080, "BSTAR": 0.0019460313, "MEAN_MOTION_DOT": 6.131e-05, "MEAN_MOTION_DDOT": 0}, "tle": {"line1": "1 35717U 93036AQN 25345.37993319  .00006131  00000+0  19460-2 0  9999", "line2": "2 35717  74.1604 219.9837 0076813  79.9617 281.0194 14.38476212740802"}}, "geometry": {"type": "Point", "coordinates": [43.09836530420284, -16.541760754039572]}}, {"type": "Feature", "properties": {"norad_id": 35718, "name": "COSMOS 2251 DEB", "group": "cosmos-2251-debris", "lat": -67.89022314793073, "lon": -4.405069565844856, "alt_km": 670.3512016351415, "timestamp": "2025-12-12T07:43:20.912466+00:00", "meta": {"OBJECT_NAME": "COSMOS 2251 DEB", "OBJECT_ID": "1993-036AQP", "EPOCH": "2025-12-09T16:26:31.942752", "MEAN_MOTION": 14.68563709, "ECCENTRICITY": 0.00112598, "INCLINATION": 74.0322, "RA_OF_ASC_NODE": 135.8815, "ARG_OF_PERICENTER": 184.534, "MEAN_ANOMALY": 175.573, "EPHEMERIS_TYPE": 0, "CLASSIFICATION_TYPE": "U", "NORAD_CAT_ID": 35718, "ELEMENT_SET_NO": 999, "REV_AT_EPOCH": 65795, "BSTAR": 0.0024435222, "MEAN_MOTION_DOT": 0.00014198, "MEAN_MOTION_DDOT": 0}, "tle": {"line1": "1 35718U 93036AQP 25343.68509193  .00014198  00000+0  24435-2 0  9995", "line2": "2 35718  74.0322 135.8815 0011259 184.5340 175.5730 14.68563709657957"}}, "geometry": {"type": "Point", "coordinates": [-4.405069565844856, -67.89022314793073]}}, {"type": "Feature", "properties": {"norad_id": 35721, "name": "COSMOS 2251 DEB", "group": "cosmos-2251-debris", "lat": -31.500428230457725, "lon": 168.34789734928216, "alt_km": 678.1095867664517, "timestamp": "2025-12-12T07:43:20.912476+00:00", "meta": {"OBJECT_NAME": "COSMOS 2251 DEB", "OBJECT_ID": "1993-036AQS", "EPOCH": "2025-12-09T19:36:39.465216", "MEAN_MOTION": 14.34317214, "ECCENTRICITY": 0.01465875, "INCLINATION": 73.9489, "RA_OF_ASC_NODE": 183.1196, "ARG_OF_PERICENTER": 330.1589, "MEAN_ANOMALY": 29.126, "EPHEMERIS_TYPE": 0, "CLASSIFICATION_TYPE": "U", "NORAD_CAT_ID": 35721, "ELEMENT_SET_NO": 999, "REV_AT_EPOCH": 57747, "BSTAR": 0.0018396061, "MEAN_MOTION_DOT": 5.808e-05, "MEAN_MOTION_DDOT": 0}, "tle": {"line1": "1 35721U 93036AQS 25343.81712344  .00005808  00000+0  18396-2 0  9995", "line2": "2 35721  73.9489 183.1196 0146587 330.1589  29.1260 14.34317214577479"}}, "geometry": {"type": "Point", "coordinates": [168.34789734928216, -31.500428230457725]}}, {"type": "Feature", "properties": {"norad_id": 35724, "name": "COSMOS 2251 DEB", "group": "cosmos-2251-debris", "lat": -50.915832609860225, "lon": 144.1173704328158, "alt_km": 735.6786924093958, "timestamp": "2025-12-12T07:43:20.912486+00:00", "meta": {"OBJECT_NAME": "COSMOS 2251 DEB", "OBJECT_ID": "1993-036AQV", "EPOCH": "2025-12-11T07:36:26.462016", "MEAN_MOTION": 14.58193223, "ECCENTRICITY": 0.00589289, "INCLINATION": 74.0322, "RA_OF_ASC_NODE": 305.3872, "ARG_OF_PERICENTER": 99.5025, "MEAN_ANOMALY": 261.2806, "EPHEMERIS_TYPE": 0, "CLASSIFICATION_TYPE": "U", "NORAD_CAT_ID": 35724, "ELEMENT_SET_NO": 999, "REV_AT_EPOCH": 87508, "BSTAR": 0.00043935858, "MEAN_MOTION_DOT": 2.046e-05, "MEAN_MOTION_DDOT": 0}, "tle": {"line1": "1 35724U 93036AQV 25345.31697294  .00002046  00000+0  43936-3 0  9991", "line2": "2 35724  74.0322 305.3872 0058928  99.5025 261.2806 14.58193223875082"}}, "geometry": {"type": "Point", "coordinates": [144.1173704328158, -50.915832609860225]}}]}